[
    {
        "Altitude(m)": 607886.7277486919,
        "Argument of Periapsis(deg)": 0.0,
        "Eccentricity": 0.0,
        "Inclination(deg)": 60.0,
        "Latitude(deg)": 40.998541978355725,
        "Longitude(deg)": 44.97287463692301,
        "Mean Anomaly(deg)": 49.09089999999999,
        "RAAN(deg)": 114.99999999999999,
        "Satellite Name": "Test1 509",
        "Satellite Number": 509,
        "Semi-Major Axis(m)": 6980739.136638005,
        "Time(s)": 0
    },
    {
        "Altitude(m)": 607987.6422638186,
        "Argument of Periapsis(deg)": 0.00010418945913296404,
        "Eccentricity": 0.0,
        "Inclination(deg)": 60.0,
        "Latitude(deg)": 41.46363311049152,
        "Longitude(deg)": 45.477101539753264,
        "Mean Anomaly(deg)": 49.71100614546182,
        "RAAN(deg)": 114.99957995086024,
        "Satellite Name": "Test1 509",
        "Satellite Number": 509,
        "Semi-Major Axis(m)": 6980739.136638005,
        "Time(s)": 10
    }
]